STARLINK-1130 (DARKSAT) 
1 44932U 20001U   24070.55981290  .00001939  00000+0  14898-3 0  9991
2 44932  53.0547  19.8063 0001276  89.5403 270.5732 15.06406056231184
STARLINK-1144           
1 44933U 20001V   24070.85102112  .00004102  00000+0  29410-3 0  9994
2 44933  53.0547  18.4961 0001620  97.8848 262.2324 15.06404925231284
STARLINK-1071           
1 44934U 20001W   24070.53217022  .00000668  00000+0  63752-4 0  9998
2 44934  53.0576 359.9289 0001333 107.6527 252.4608 15.06394903230221
STARLINK-1079           
1 44937U 20001Z   24070.51321518  .00030410  00000+0  18824-2 0  9991
2 44937  53.0554 359.3590 0002888 115.9670 244.1618 15.09570365230237
STARLINK-1082           
1 44938U 20001AA  24070.91668981  .00526551  00000+0  25156-1 0  9995
2 44938  53.0542 357.8830 0001237  96.1584 298.5114 15.16429839  5563
STARLINK-1083           
1 44939U 20001AB  24070.94863687 -.00046403  00000+0 -31174-2 0  9992
2 44939  53.0554 358.0607 0002009   7.0528 353.0489 15.06390171230285
STARLINK-1091           
1 44940U 20001AC  24070.95975280 -.00000068  00000+0  14333-4 0  9994
2 44940  53.0578 358.0108 0001451  92.8844 267.2311 15.06381466230289
STARLINK-1094           
1 44941U 20001AD  24070.51742841  .00006617  00000+0  46262-3 0  9992
2 44941  53.0555 359.9987 0001054  88.3445 271.7665 15.06405019230223
STARLINK-1096           
1 44942U 20001AE  24070.89419667  .00013741  00000+0  51301-3 0  9997
2 44942  53.0149 305.7679 0001139 345.8303  14.2663 15.27680729231021
STARLINK-1100           
1 44943U 20001AF  24070.91668981  .01357263  00000+0  65967-1 0  9998
2 44943  53.0547 358.0950 0001359  86.0619 176.9093 15.15043486  5757
STARLINK-1108           
1 44944U 20001AG  24070.52848316 -.00000924  00000+0 -43157-4 0  9998
2 44944  53.0571 359.9471 0001627  86.3920 273.7255 15.06401569230227
STARLINK-1109           
1 44945U 20001AH  24070.95603793  .00012036  00000+0  82475-3 0  9994
2 44945  53.0550 358.0308 0001009  76.3500 283.7602 15.06434385230286
STARLINK-1110           
1 44946U 20001AJ  24070.91668981  .00345162  00000+0  14686-2 0  9998
2 44946  53.0056 203.0773 0003533 257.7083 343.5745 15.83793770232396
STARLINK-1122           
1 44949U 20001AM  24070.93761940 -.00004982  00000+0 -31585-3 0  9994
2 44949  53.0548 358.1123 0001392  91.7673 268.3475 15.06394194230280
STARLINK-1126           
1 44951U 20001AP  24070.35976883  .00105718  00000+0  75960-3 0  9999
2 44951  53.0092 205.7609 0004484 253.1523 106.9003 15.72831114233600
STARLINK-1117           
1 44952U 20001AQ  24070.52111008  .00001842  00000+0  14248-3 0  9994
2 44952  53.0553 359.9763 0000819 107.5083 252.5996 15.06408660230224
STARLINK-1066           
1 44954U 20001AS  24070.95053097  .00007648  00000+0  53193-3 0  9998
2 44954  53.0572 338.0500 0001762 109.5342 250.5838 15.06390971230512
STARLINK-1076           
1 44959U 20001AX  24070.92841785  .00004238  00000+0  30328-3 0  9996
2 44959  53.0555 338.1516 0002288 122.4780 237.6430 15.06392841230567
STARLINK-1080           
1 44961U 20001AZ  24070.93579928 -.00001855  00000+0 -10570-3 0  9998
2 44961  53.0561 338.1219 0001885 112.8433 247.2755 15.06384772230579
STARLINK-1088           
1 44966U 20001BE  24070.95055883  .00009247  00000+0  37081-3 0  9991
2 44966  53.0652 306.3262 0004340  94.3499 265.7995 15.25712210231020
STARLINK-1089           
1 44967U 20001BF  24070.94315990 -.00000190  00000+0  61290-5 0  9999
2 44967  53.0554 338.0844 0001881 106.5728 253.5468 15.06408084230577
STARLINK-1090           
1 44968U 20001BG  24070.93946896  .00000010  00000+0  19557-4 0  9992
2 44968  53.0552 338.1045 0001177  80.8667 279.2455 15.06393923230570
STARLINK-1092           
1 44969U 20001BH  24070.93210377  .00008275  00000+0  57390-3 0  9998
2 44969  53.0535 338.1363 0002296  89.2702 270.8550 15.06390282230568
STARLINK-1093           
1 44970U 20001BJ  24070.90998466 -.00002875  00000+0 -17424-3 0  9995
2 44970  53.0570 338.2395 0001888  95.4068 264.7136 15.06383129230558
STARLINK-1107           
1 44972U 20001BL  24070.94683588 -.00000753  00000+0 -31678-4 0  9998
2 44972  53.0571 338.0704 0001334  94.4053 265.7088 15.06395385230578
STARLINK-1115           
1 44973U 20001BM  24070.92473040  .00002136  00000+0  16227-3 0  9994
2 44973  53.0549 338.1742 0001899  95.5745 264.5460 15.06403697230569
STARLINK-1132           
1 45044U 20006A   24070.89892713  .00002196  00000+0  16627-3 0  9997
2 45044  53.0544 298.2861 0001024 106.7177 253.3924 15.06396513226896
STARLINK-1120           
1 45045U 20006B   24070.91668981  .00798445  00000+0  17385-1 0  9998
2 45045  53.0557 315.1179 0001114  90.5184 225.2696 15.41512410  5816
STARLINK-1131           
1 45047U 20006D   24070.92928254 -.00001667  00000+0 -93046-4 0  9999
2 45047  53.0545 317.8708 0001515  90.1423 269.9739 15.06393134226627
STARLINK-1134           
1 45048U 20006E   24070.96343450  .00000251  00000+0  35716-4 0  9999
2 45048  53.0547 317.9997 0000638  83.0216 277.0845 15.06398498226623
STARLINK-1135           
1 45049U 20006F   24070.49137459  .00012549  00000+0  42984-3 0  9995
2 45049  53.0846 258.9539 0004275  67.5618 292.5835 15.30592495227448
STARLINK-1140           
1 45050U 20006G   24070.91668981  .00912752  00000+0  52177-1 0  9991
2 45050  53.0542 318.1931 0001356  89.3213 326.3698 15.09400931  5714
STARLINK-1148           
1 45052U 20006J   24070.91550959 -.00001126  00000+0 -56714-4 0  9998
2 45052  53.0540 318.2110 0001533 118.6766 241.4377 15.06397051226610
STARLINK-1155           
1 45053U 20006K   24070.67243837  .00027330  00000+0  56982-3 0  9995
2 45053  52.9842 206.2172 0003812  76.4217 283.7213 15.45381573228099
STARLINK-1156           
1 45054U 20006L   24070.91183138  .00001499  00000+0  11953-3 0  9997
2 45054  53.0558 318.2304 0001651  79.1978 280.9196 15.06390488226617
STARLINK-1159           
1 45057U 20006P   24070.92659137  .00010437  00000+0  71871-3 0  9995
2 45057  53.0550 318.1635 0001386  98.3955 261.7191 15.06390791226621
STARLINK-1162           
1 45058U 20006Q   24070.85285192 -.00002075  00000+0 -12048-3 0  9996
2 45058  53.0540 318.4976 0001273  90.3959 269.7176 15.06391747226615
STARLINK-1165           
1 45059U 20006R   24070.91668981  .00857208  00000+0  45711-1 0  9990
2 45059  53.0530 318.1179 0001619  92.4890 182.4993 15.12109195  5814
STARLINK-1166           
1 45060U 20006S   24070.93763748  .00000737  00000+0  68408-4 0  9999
2 45060  53.0527 318.1119 0001350  97.6441 262.4702 15.06393800226629
STARLINK-1169           
1 45061U 20006T   24070.94499488  .00008901  00000+0  61564-3 0  9994
2 45061  53.0545 318.0789 0001498  97.4230 262.6929 15.06403789226620
STARLINK-1171           
1 45062U 20006U   24070.93026220 -.00001461  00000+0 -79241-4 0  9992
2 45062  53.0562 318.1467 0001467  90.8794 269.2363 15.06393509226625
STARLINK-1133           
1 45064U 20006W   24070.94315600 -.00002588  00000+0 -15494-3 0  9998
2 45064  53.0530 298.0886 0001244  77.0730 283.0398 15.06389450226906
STARLINK-1139           
1 45065U 20006X   24070.79633612  .00016065  00000+0  64212-3 0  9993
2 45065  53.0548 277.6584 0007141 184.2332 175.8606 15.25263490227182
STARLINK-1145           
1 45066U 20006Y   24070.92104422  .00000087  00000+0  24742-4 0  9993
2 45066  53.0556 298.1900 0000856  89.2621 270.8466 15.06390182226898
STARLINK-1150           
1 45067U 20006Z   24070.93579435  .00000639  00000+0  61826-4 0  9992
2 45067  53.0537 298.1234 0001450  92.1855 267.9300 15.06395347226905
STARLINK-1161           
1 45068U 20006AA  24070.90901557 -.00000565  00000+0 -19077-4 0  9995
2 45068  53.0546 298.1074 0001330  89.7908 270.3233 15.06394538226898
STARLINK-1167           
1 45071U 20006AD  24070.90262416  .00001018  00000+0  87256-4 0  9999
2 45071  53.0536 298.2693 0001286  91.6491 268.4646 15.06390977226897
STARLINK-1168           
1 45072U 20006AE  24070.90629497 -.00001625  00000+0 -90239-4 0  9997
2 45072  53.0553 298.2514 0001274  93.1373 266.9762 15.06393039226896
STARLINK-1170           
1 45073U 20006AF  24070.93207282 -.00028048  00000+0 -18687-2 0  9998
2 45073  53.0540 298.1378 0001692  83.3214 276.7968 15.06455013226897
STARLINK-1172           
1 45074U 20006AG  24070.91735678 -.00002596  00000+0 -15549-3 0  9997
2 45074  53.0545 298.2025 0001301  94.6245 265.4893 15.06388608226896
STARLINK-1174           
1 45075U 20006AH  24070.95053348  .00001787  00000+0  13885-3 0  9999
2 45075  53.0534 298.0543 0001487  86.8205 273.2954 15.06395026226901
STARLINK-1180           
1 45076U 20006AJ  24070.91668981  .01154401  00000+0  65815-1 0  9992
2 45076  53.0523 298.1852 0001303  92.0316  56.5844 15.09276478  5810
STARLINK-1177           
1 45078U 20006AL  24070.90997975 -.00000732  00000+0 -30263-4 0  9991
2 45078  53.0542 298.2382 0001234  90.8810 269.2320 15.06403511226881
STARLINK-1149           
1 45079U 20006AM  24070.95326013  .00002297  00000+0  17301-3 0  9999
2 45079  53.0550 298.0328 0001387  89.4909 270.6238 15.06403648226897
STARLINK-1153           
1 45080U 20006AN  24070.89524777  .00003143  00000+0  22982-3 0  9993
2 45080  53.0507 298.3025 0001524  96.1068 264.0095 15.06392656226896
STARLINK-1151           
1 45081U 20006AP  24070.88051170  .00001191  00000+0  98828-4 0  9999
2 45081  53.0523 298.4466 0001397  85.9243 274.1906 15.06391263226890
STARLINK-1160           
1 45082U 20006AQ  24070.91668981  .01131033  00000+0  48888-1 0  9996
2 45082  53.0524 297.8571 0001310  80.7617  36.5245 15.19223295  5800
STARLINK-1190           
1 45083U 20006AR  24070.95973907 -.00001041  00000+0 -51033-4 0  9993
2 45083  53.0559 318.0133 0001350  89.2263 270.8881 15.06398405226620
STARLINK-1173           
1 45084U 20006AS  24070.80861784 -.00000270  00000+0  75921-6 0  9993
2 45084  53.0530 278.6903 0001399  99.2155 260.8992 15.06396733227164
